{
  "norad_id": 60534,
  "name": "SATELIOT_2",
  "history": [
    {
      "epoch": "2026-03-28T16:57:54.508896",
      "apogee_km": 580.3015633813493,
      "perigee_km": 577.9185671165615,
      "latitude_deg": -56.97713789398951,
      "longitude_deg": -58.739434560062364,
      "semi_major_axis_km": 6957.247065248956,
      "eccentricity": 0.00017126,
      "inclination_deg": 97.6872,
      "raan_deg": 164.137,
      "arg_perigee_deg": 78.4669,
      "mean_anomaly_deg": 281.6745,
      "mean_motion_rev_day": 14.96051771
    },
    {
      "epoch": "2026-03-29T04:12:05.957280",
      "apogee_km": 580.2627870485621,
      "perigee_km": 577.9321135077189,
      "latitude_deg": -79.19649773115887,
      "longitude_deg": -13.793380800168961,
      "semi_major_axis_km": 6957.23445027814,
      "eccentricity": 0.0001675,
      "inclination_deg": 97.6872,
      "raan_deg": 164.5967,
      "arg_perigee_deg": 77.2859,
      "mean_anomaly_deg": 282.855,
      "mean_motion_rev_day": 14.9605584
    }
  ]
}